CCSDS_OMM_VERS = 2.0
CREATION_DATE  = 
ORIGINATOR     = 

OBJECT_NAME    = CZ-2C R/B
OBJECT_ID      = 2022-132E
CENTER_NAME    = EARTH
REF_FRAME      = TEME
TIME_SYSTEM    = UTC
MEAN_ELEMENT_THEORY = SGP/SGP4

EPOCH          = 2026-01-02T12:20:39.004512
MEAN_MOTION    = 15.56267913
ECCENTRICITY   = .0019137
INCLINATION    = 97.2936
RA_OF_ASC_NODE = 4.1305
ARG_OF_PERICENTER = 344.1402
MEAN_ANOMALY   = 15.9251

EPHEMERIS_TYPE = 0
CLASSIFICATION_TYPE = U
NORAD_CAT_ID   = 54039
ELEMENT_SET_NO = 999
REV_AT_EPOCH   = 18006
BSTAR          = .64658295E-3
MEAN_MOTION_DOT = .45868E-3
MEAN_MOTION_DDOT = 0

CCSDS_OMM_VERS = 2.0
CREATION_DATE  = 
ORIGINATOR     = 

OBJECT_NAME    = GSLV R/B
OBJECT_ID      = 2022-138AN
CENTER_NAME    = EARTH
REF_FRAME      = TEME
TIME_SYSTEM    = UTC
MEAN_ELEMENT_THEORY = SGP/SGP4

EPOCH          = 2026-01-02T12:31:59.077920
MEAN_MOTION    = 14.96262023
ECCENTRICITY   = .00232302
INCLINATION    = 87.3821
RA_OF_ASC_NODE = 188.5130
ARG_OF_PERICENTER = 37.0410
MEAN_ANOMALY   = 323.2419

EPHEMERIS_TYPE = 0
CLASSIFICATION_TYPE = U
NORAD_CAT_ID   = 54149
ELEMENT_SET_NO = 999
REV_AT_EPOCH   = 17403
BSTAR          = .50756038E-3
MEAN_MOTION_DOT = .5787E-4
MEAN_MOTION_DDOT = 0

CCSDS_OMM_VERS = 2.0
CREATION_DATE  = 
ORIGINATOR     = 

OBJECT_NAME    = XRISM
OBJECT_ID      = 2023-137A
CENTER_NAME    = EARTH
REF_FRAME      = TEME
TIME_SYSTEM    = UTC
MEAN_ELEMENT_THEORY = SGP/SGP4

EPOCH          = 2026-01-02T06:05:40.567200
MEAN_MOTION    = 15.10604286
ECCENTRICITY   = .000761
INCLINATION    = 31.0035
RA_OF_ASC_NODE = 353.0766
ARG_OF_PERICENTER = 93.5501
MEAN_ANOMALY   = 266.6008

EPHEMERIS_TYPE = 0
CLASSIFICATION_TYPE = U
NORAD_CAT_ID   = 57800
ELEMENT_SET_NO = 999
REV_AT_EPOCH   = 12773
BSTAR          = .61517E-3
MEAN_MOTION_DOT = .10523E-3
MEAN_MOTION_DDOT = 0

CCSDS_OMM_VERS = 2.0
CREATION_DATE  = 
ORIGINATOR     = 

OBJECT_NAME    = ACS3
OBJECT_ID      = 2024-077B
CENTER_NAME    = EARTH
REF_FRAME      = TEME
TIME_SYSTEM    = UTC
MEAN_ELEMENT_THEORY = SGP/SGP4

EPOCH          = 2026-01-02T20:00:20.292480
MEAN_MOTION    = 13.86642275
ECCENTRICITY   = .0069642
INCLINATION    = 97.2522
RA_OF_ASC_NODE = 318.7256
ARG_OF_PERICENTER = 285.6103
MEAN_ANOMALY   = 73.7381

EPHEMERIS_TYPE = 0
CLASSIFICATION_TYPE = U
NORAD_CAT_ID   = 59588
ELEMENT_SET_NO = 999
REV_AT_EPOCH   = 8506
BSTAR          = .25835E-1
MEAN_MOTION_DOT = .30714E-3
MEAN_MOTION_DDOT = 0

CCSDS_OMM_VERS = 2.0
CREATION_DATE  = 
ORIGINATOR     = 

OBJECT_NAME    = SZ-21 MODULE
OBJECT_ID      = 2025-246C
CENTER_NAME    = EARTH
REF_FRAME      = TEME
TIME_SYSTEM    = UTC
MEAN_ELEMENT_THEORY = SGP/SGP4

EPOCH          = 2026-01-02T16:30:50.579424
MEAN_MOTION    = 15.63766644
ECCENTRICITY   = .0002389
INCLINATION    = 41.4757
RA_OF_ASC_NODE = 248.1478
ARG_OF_PERICENTER = 22.7374
MEAN_ANOMALY   = 337.3571

EPHEMERIS_TYPE = 0
CLASSIFICATION_TYPE = U
NORAD_CAT_ID   = 66515
ELEMENT_SET_NO = 999
REV_AT_EPOCH   = 772
BSTAR          = .41839E-3
MEAN_MOTION_DOT = .40143E-3
MEAN_MOTION_DDOT = 0

