CZ-2C R/B               
1 54039U 22132E   26002.51434033  .00045868  00000+0  64658-3 0  9996
2 54039  97.2936   4.1305 0019137 344.1402  15.9251 15.56267913180064
GSLV R/B                
1 54149U 22138AN  26002.52221155  .00005787  00000+0  50756-3 0  9994
2 54149  87.3821 188.5130 0023230  37.0410 323.2419 14.96262023174039
XRISM                   
1 57800U 23137A   26002.25394175  .00010523  00000+0  61517-3 0  9995
2 57800  31.0035 353.0766 0007610  93.5501 266.6008 15.10604286127732
ACS3                    
1 59588U 24077B   26002.83356820  .00030714  00000+0  25835-1 0  9998
2 59588  97.2522 318.7256 0069642 285.6103  73.7381 13.86642275 85060
SZ-21 MODULE            
1 66515U 25246C   26002.68808541  .00040143  00000+0  41839-3 0  9991
2 66515  41.4757 248.1478 0002389  22.7374 337.3571 15.63766644  7727
